[{"OBJECT_NAME":"SJ-11-01","OBJECT_ID":"2009-061A","EPOCH":"2026-03-09T22:23:06.372960","MEAN_MOTION":14.6357145,"ECCENTRICITY":0.0010599,"INCLINATION":97.9987,"RA_OF_ASC_NODE":52.7837,"ARG_OF_PERICENTER":343.574,"MEAN_ANOMALY":101.0983,"EPHEMERIS_TYPE":0,"CLASSIFICATION_TYPE":"U","NORAD_CAT_ID":36088,"ELEMENT_SET_NO":999,"REV_AT_EPOCH":86997,"BSTAR":0.00019291799,"MEAN_MOTION_DOT":9.56e-6,"MEAN_MOTION_DDOT":0},{"OBJECT_NAME":"MOZHAETS","OBJECT_ID":"2002-054B","EPOCH":"2026-03-10T00:24:22.014144","MEAN_MOTION":14.61693091,"ECCENTRICITY":0.00377045,"INCLINATION":98.4531,"RA_OF_ASC_NODE":283.6594,"ARG_OF_PERICENTER":326.6467,"MEAN_ANOMALY":196.8533,"EPHEMERIS_TYPE":0,"CLASSIFICATION_TYPE":"U","NORAD_CAT_ID":27560,"ELEMENT_SET_NO":999,"REV_AT_EPOCH":23778,"BSTAR":0.00025815744,"MEAN_MOTION_DOT":1.247e-5,"MEAN_MOTION_DDOT":0}]
